IRIDIUM 36              
1 24967U 97056C   24266.47548806  .00000739  00000+0  24262-3 0  9994
2 24967  86.3909 285.4369 0002358  96.2830 263.8636 14.37044347413760
IRIDIUM 39              
1 25042U 97069D   24266.57485063  .00001279  00000+0  33565-3 0  9995
2 25042  86.3934 325.8786 0020222 117.5178 242.8083 14.48361563410211
IRIDIUM 38              
1 25043U 97069E   24266.93913574  .00000912  00000+0  29788-3 0  9994
2 25043  86.4011 345.6020 0000704 150.4543 209.6695 14.37540201407554
IRIDIUM 42              
1 25077U 97077A   24266.48124230  .00000923  00000+0  31243-3 0  9994
2 25077  86.4023 351.6289 0001460  94.5997 265.5367 14.35816644402770
IRIDIUM 44              
1 25078U 97077B   24266.46003176  .00000887  00000+0  27735-3 0  9998
2 25078  86.3991 334.2890 0002782 135.2363 224.9060 14.39660263405171
IRIDIUM 45              
1 25104U 97082A   24266.46623161  .00015955  00000+0  80378-3 0  9990
2 25104  86.3712 176.4413 0144330 244.3664 114.2603 15.08309784411492
IRIDIUM 24              
1 25105U 97082B   24266.91322919  .00001120  00000+0  33913-3 0  9990
2 25105  86.3981 193.5206 0009279 235.3608 124.6718 14.41479336404706
IRIDIUM 51              
1 25262U 98018A   24266.60483367  .00022648  00000+0  90870-3 0  9998
2 25262  86.3989 185.8755 0130869 180.3581 179.7591 15.17206999406158
